{
  "type": "FeatureCollection",
  "features": [
    {
      "type": "Feature",
      "properties": {
        "norad_id": 39773,
        "name": "EUTELSAT 3B",
        "group": "eutelsat",
        "lat": -0.05241383459019797,
        "lon": -150.58123356884326,
        "alt_km": 35767.21094827009,
        "timestamp": "2025-12-02T08:59:32.391057+00:00",
        "meta_object_name": "EUTELSAT 3B",
        "meta_object_id": "2014-030A",
        "meta_epoch": "2025-12-02T03:31:34.712256",
        "meta_mean_motion": 1.00270567,
        "meta_eccentricity": 0.0004754,
        "meta_inclination": 0.0627,
        "meta_ra_of_asc_node": 358.4997,
        "meta_arg_of_pericenter": 228.1115,
        "meta_mean_anomaly": 260.6387,
        "meta_ephemeris_type": 0,
        "meta_classification_type": "U",
        "meta_norad_cat_id": 39773,
        "meta_element_set_no": 999,
        "meta_rev_at_epoch": 4209,
        "meta_bstar": 0,
        "meta_mean_motion_dot": 4.1e-07,
        "meta_mean_motion_ddot": 0,
        "tle_line1": "1 39773U 14030A   25336.14692954  .00000041  00000+0  00000+0 0  9999",
        "tle_line2": "2 39773   0.0627 358.4997 0004754 228.1115 260.6387  1.00270567 42096"
      },
      "geometry": {
        "type": "Point",
        "coordinates": [
          -150.58123356884326,
          -0.05241383459019797
        ]
      }
    },
    {
      "type": "Feature",
      "properties": {
        "norad_id": 40425,
        "name": "EUTELSAT 115 WEST B",
        "group": "eutelsat",
        "lat": -0.008111499280386212,
        "lon": 91.43442524556815,
        "alt_km": 35786.201443005804,
        "timestamp": "2025-12-02T08:59:32.391068+00:00",
        "meta_object_name": "EUTELSAT 115 WEST B",
        "meta_object_id": "2015-010B",
        "meta_epoch": "2025-12-01T23:33:38.579328",
        "meta_mean_motion": 1.00269195,
        "meta_eccentricity": 1.92e-05,
        "meta_inclination": 0.0091,
        "meta_ra_of_asc_node": 164.6167,
        "meta_arg_of_pericenter": 243.8605,
        "meta_mean_anomaly": 261.1263,
        "meta_ephemeris_type": 0,
        "meta_classification_type": "U",
        "meta_norad_cat_id": 40425,
        "meta_element_set_no": 999,
        "meta_rev_at_epoch": 3941,
        "meta_bstar": 0,
        "meta_mean_motion_dot": -3e-08,
        "meta_mean_motion_ddot": 0,
        "tle_line1": "1 40425U 15010B   25335.98169652 -.00000003  00000+0  00000+0 0  9998",
        "tle_line2": "2 40425   0.0091 164.6167 0000192 243.8605 261.1263  1.00269195 39419"
      },
      "geometry": {
        "type": "Point",
        "coordinates": [
          91.43442524556815,
          -0.008111499280386212
        ]
      }
    },
    {
      "type": "Feature",
      "properties": {
        "norad_id": 40875,
        "name": "EUTELSAT 8 WEST B",
        "group": "eutelsat",
        "lat": -0.05660130518500841,
        "lon": -161.6968081819011,
        "alt_km": 35776.347379716666,
        "timestamp": "2025-12-02T08:59:32.391080+00:00",
        "meta_object_name": "EUTELSAT 8 WEST B",
        "meta_object_id": "2015-039B",
        "meta_epoch": "2025-12-02T03:28:27.511104",
        "meta_mean_motion": 1.00271462,
        "meta_eccentricity": 0.0004114,
        "meta_inclination": 0.0662,
        "meta_ra_of_asc_node": 344.4918,
        "meta_arg_of_pericenter": 269.5576,
        "meta_mean_anomaly": 221.3249,
        "meta_ephemeris_type": 0,
        "meta_classification_type": "U",
        "meta_norad_cat_id": 40875,
        "meta_element_set_no": 999,
        "meta_rev_at_epoch": 3768,
        "meta_bstar": 0,
        "meta_mean_motion_dot": -4.5e-07,
        "meta_mean_motion_ddot": 0,
        "tle_line1": "1 40875U 15039B   25336.14476286 -.00000045  00000+0  00000+0 0  9997",
        "tle_line2": "2 40875   0.0662 344.4918 0004114 269.5576 221.3249  1.00271462 37683"
      },
      "geometry": {
        "type": "Point",
        "coordinates": [
          -161.6968081819011,
          -0.05660130518500841
        ]
      }
    },
    {
      "type": "Feature",
      "properties": {
        "norad_id": 41310,
        "name": "EUTELSAT 9B",
        "group": "eutelsat",
        "lat": 0.008357871079512698,
        "lon": -144.71773154160144,
        "alt_km": 35772.7300836498,
        "timestamp": "2025-12-02T08:59:32.391106+00:00",
        "meta_object_name": "EUTELSAT 9B",
        "meta_object_id": "2016-005A",
        "meta_epoch": "2025-12-02T03:33:12.057408",
        "meta_mean_motion": 1.00270948,
        "meta_eccentricity": 0.0004828,
        "meta_inclination": 0.0621,
        "meta_ra_of_asc_node": 74.5874,
        "meta_arg_of_pericenter": 189.2685,
        "meta_mean_anomaly": 229.6889,
        "meta_ephemeris_type": 0,
        "meta_classification_type": "U",
        "meta_norad_cat_id": 41310,
        "meta_element_set_no": 999,
        "meta_rev_at_epoch": 3614,
        "meta_bstar": 0,
        "meta_mean_motion_dot": 8.3e-07,
        "meta_mean_motion_ddot": 0,
        "tle_line1": "1 41310U 16005A   25336.14805622  .00000083  00000+0  00000+0 0  9997",
        "tle_line2": "2 41310   0.0621  74.5874 0004828 189.2685 229.6889  1.00270948 36145"
      },
      "geometry": {
        "type": "Point",
        "coordinates": [
          -144.71773154160144,
          0.008357871079512698
        ]
      }
    },
    {
      "type": "Feature",
      "properties": {
        "norad_id": 41382,
        "name": "EUTELSAT 65 WEST A",
        "group": "eutelsat",
        "lat": 0.014894193253333262,
        "lon": 141.1111607869388,
        "alt_km": 35791.33299541217,
        "timestamp": "2025-12-02T08:59:32.391122+00:00",
        "meta_object_name": "EUTELSAT 65 WEST A",
        "meta_object_id": "2016-014A",
        "meta_epoch": "2025-12-02T03:12:06.577344",
        "meta_mean_motion": 1.00271225,
        "meta_eccentricity": 0.0002707,
        "meta_inclination": 0.0508,
        "meta_ra_of_asc_node": 340.6974,
        "meta_arg_of_pericenter": 276.7584,
        "meta_mean_anomaly": 156.6171,
        "meta_ephemeris_type": 0,
        "meta_classification_type": "U",
        "meta_norad_cat_id": 41382,
        "meta_element_set_no": 999,
        "meta_rev_at_epoch": 3555,
        "meta_bstar": 0,
        "meta_mean_motion_dot": -2.55e-06,
        "meta_mean_motion_ddot": 0,
        "tle_line1": "1 41382U 16014A   25336.13340946 -.00000255  00000+0  00000+0 0  9990",
        "tle_line2": "2 41382   0.0508 340.6974 0002707 276.7584 156.6171  1.00271225 35556"
      },
      "geometry": {
        "type": "Point",
        "coordinates": [
          141.1111607869388,
          0.014894193253333262
        ]
      }
    },
    {
      "type": "Feature",
      "properties": {
        "norad_id": 41589,
        "name": "EUTELSAT 117 WEST B",
        "group": "eutelsat",
        "lat": -0.011521594413482238,
        "lon": 89.34916388410649,
        "alt_km": 35786.362859700464,
        "timestamp": "2025-12-02T08:59:32.391135+00:00",
        "meta_object_name": "EUTELSAT 117 WEST B",
        "meta_object_id": "2016-038B",
        "meta_epoch": "2025-12-01T14:58:10.977024",
        "meta_mean_motion": 1.00272248,
        "meta_eccentricity": 1.08e-05,
        "meta_inclination": 0.0065,
        "meta_ra_of_asc_node": 141.8344,
        "meta_arg_of_pericenter": 143.4656,
        "meta_mean_anomaly": 252.9964,
        "meta_ephemeris_type": 0,
        "meta_classification_type": "U",
        "meta_norad_cat_id": 41589,
        "meta_element_set_no": 999,
        "meta_rev_at_epoch": 3468,
        "meta_bstar": 0,
        "meta_mean_motion_dot": 1e-07,
        "meta_mean_motion_ddot": 0,
        "tle_line1": "1 41589U 16038B   25335.62373816  .00000010  00000+0  00000+0 0  9998",
        "tle_line2": "2 41589   0.0065 141.8344 0000108 143.4656 252.9964  1.00272248 34687"
      },
      "geometry": {
        "type": "Point",
        "coordinates": [
          89.34916388410649,
          -0.011521594413482238
        ]
      }
    },
    {
      "type": "Feature",
      "properties": {
        "norad_id": 42741,
        "name": "EUTELSAT 172B",
        "group": "eutelsat",
        "lat": 0.0005741097064273088,
        "lon": 18.33439457914049,
        "alt_km": 35787.08884643836,
        "timestamp": "2025-12-02T08:59:32.391147+00:00",
        "meta_object_name": "EUTELSAT 172B",
        "meta_object_id": "2017-029B",
        "meta_epoch": "2025-12-02T01:27:38.476800",
        "meta_mean_motion": 1.00270459,
        "meta_eccentricity": 1.69e-05,
        "meta_inclination": 0.0058,
        "meta_ra_of_asc_node": 208.97,
        "meta_arg_of_pericenter": 14.4523,
        "meta_mean_anomaly": 41.6573,
        "meta_ephemeris_type": 0,
        "meta_classification_type": "U",
        "meta_norad_cat_id": 42741,
        "meta_element_set_no": 999,
        "meta_rev_at_epoch": 3175,
        "meta_bstar": 0,
        "meta_mean_motion_dot": 1.5e-07,
        "meta_mean_motion_ddot": 0,
        "tle_line1": "1 42741U 17029B   25336.06086200  .00000015  00000+0  00000+0 0  9992",
        "tle_line2": "2 42741   0.0058 208.9700 0000169  14.4523  41.6573  1.00270459 31754"
      },
      "geometry": {
        "type": "Point",
        "coordinates": [
          18.33439457914049,
          0.0005741097064273088
        ]
      }
    }
  ]
}